start=new Date('2023-02-15T00:00:00.000Z').valueOf();
sats=[{"MEAN_MOTION_DOT":"0.00006168","OBJECT_ID":"2022-062AX","NORAD_CAT_ID":"52875","EPOCH":"2023-02-14T13:25:58.021248","TLE_LINE2":"2 52875  53.2181 358.0913 0001361  77.4729 282.6415 15.08847519 37607","REV_AT_EPOCH":"3760","MEAN_ANOMALY":"282.6415","APOAPSIS":"540.664","SEMIMAJOR_AXIS":"6917.857","ARG_OF_PERICENTER":"77.4729","ELEMENT_SET_NO":"999","ECCENTRICITY":"0.00013610","FILE":"3792004","BSTAR":"0.00040523000000","RA_OF_ASC_NODE":"358.0913","SITE":"AFETR","LAUNCH_DATE":"2022-06-17","RCS_SIZE":"LARGE","GP_ID":"225408577","MEAN_MOTION":"15.08847519","DECAY_DATE":null,"MEAN_ELEMENT_THEORY":"SGP4","PERIOD":"95.437","MEAN_MOTION_DDOT":"0.0000000000000","OBJECT_TYPE":"PAYLOAD","CLASSIFICATION_TYPE":"U","TLE_LINE1":"1 52875U 22062AX  23045.55969932  .00006168  00000-0  40523-3 0  9999","OBJECT_NAME":"STARLINK-4193","CENTER_NAME":"EARTH","REF_FRAME":"TEME","EPHEMERIS_TYPE":"0","INCLINATION":"53.2181","PERIAPSIS":"538.781","COUNTRY_CODE":"US","TIME_SYSTEM":"UTC"},{"ELEMENT_SET_NO":"999","ARG_OF_PERICENTER":"108.7939","ECCENTRICITY":"0.00010360","FILE":"3792084","BSTAR":"0.00072657000000","RA_OF_ASC_NODE":"356.8674","SITE":"AFETR","LAUNCH_DATE":"2022-06-17","MEAN_MOTION":"15.08846022","RCS_SIZE":"LARGE","GP_ID":"225434101","MEAN_MOTION_DOT":"0.00011296","OBJECT_ID":"2022-062AY","EPOCH":"2023-02-14T19:58:06.531456","NORAD_CAT_ID":"52876","TLE_LINE2":"2 52876  53.2186 356.8674 0001036 108.7939 251.3166 15.08846022 37157","REV_AT_EPOCH":"3715","APOAPSIS":"540.444","MEAN_ANOMALY":"251.3166","SEMIMAJOR_AXIS":"6917.862","EPHEMERIS_TYPE":"0","INCLINATION":"53.2186","COUNTRY_CODE":"US","PERIAPSIS":"539.010","TIME_SYSTEM":"UTC","DECAY_DATE":null,"MEAN_ELEMENT_THEORY":"SGP4","PERIOD":"95.437","MEAN_MOTION_DDOT":"0.0000000000000","OBJECT_TYPE":"PAYLOAD","TLE_LINE1":"1 52876U 22062AY  23045.83202004  .00011296  00000-0  72657-3 0  9992","CLASSIFICATION_TYPE":"U","OBJECT_NAME":"STARLINK-4200","REF_FRAME":"TEME","CENTER_NAME":"EARTH"},{"TLE_LINE2":"2 52877  53.2185 357.9054 0001094  97.0302 263.0814 15.08851897 37616","REV_AT_EPOCH":"3761","APOAPSIS":"540.466","MEAN_ANOMALY":"263.0814","SEMIMAJOR_AXIS":"6917.844","MEAN_MOTION_DOT":"0.00018520","OBJECT_ID":"2022-062AZ","NORAD_CAT_ID":"52877","EPOCH":"2023-02-14T14:24:15.528672","SITE":"AFETR","RA_OF_ASC_NODE":"357.9054","LAUNCH_DATE":"2022-06-17","MEAN_MOTION":"15.08851897","GP_ID":"225407623","RCS_SIZE":"LARGE","ELEMENT_SET_NO":"999","ARG_OF_PERICENTER":"97.0302","ECCENTRICITY":"0.00010940","FILE":"3791976","BSTAR":"0.00117830000000","TLE_LINE1":"1 52877U 22062AZ  23045.60017973  .00018520  00000-0  11783-2 0  9996","CLASSIFICATION_TYPE":"U","OBJECT_NAME":"STARLINK-4214","CENTER_NAME":"EARTH","REF_FRAME":"TEME","DECAY_DATE":null,"MEAN_ELEMENT_THEORY":"SGP4","PERIOD":"95.437","OBJECT_TYPE":"PAYLOAD","MEAN_MOTION_DDOT":"0.0000000000000","COUNTRY_CODE":"US","PERIAPSIS":"538.952","TIME_SYSTEM":"UTC","EPHEMERIS_TYPE":"0","INCLINATION":"53.2185"},{"TLE_LINE1":"1 52878U 22062BA  23045.55601631  .00029542  00000-0  18645-2 0  9991","CLASSIFICATION_TYPE":"U","REF_FRAME":"TEME","OBJECT_NAME":"STARLINK-4171","CENTER_NAME":"EARTH","MEAN_ELEMENT_THEORY":"SGP4","DECAY_DATE":null,"OBJECT_TYPE":"PAYLOAD","MEAN_MOTION_DDOT":"0.0000000000000","PERIOD":"95.435","TIME_SYSTEM":"UTC","COUNTRY_CODE":"US","PERIAPSIS":"538.832","EPHEMERIS_TYPE":"0","INCLINATION":"53.2177","TLE_LINE2":"2 52878  53.2177 358.1036 0001149  87.0175 273.0949 15.08878888 37113","REV_AT_EPOCH":"3711","SEMIMAJOR_AXIS":"6917.762","APOAPSIS":"540.421","MEAN_ANOMALY":"273.0949","OBJECT_ID":"2022-062BA","MEAN_MOTION_DOT":"0.00029542","EPOCH":"2023-02-14T13:20:39.809184","NORAD_CAT_ID":"52878","SITE":"AFETR","RA_OF_ASC_NODE":"358.1036","MEAN_MOTION":"15.08878888","RCS_SIZE":"LARGE","GP_ID":"225394237","LAUNCH_DATE":"2022-06-17","ECCENTRICITY":"0.00011490","ELEMENT_SET_NO":"999","ARG_OF_PERICENTER":"87.0175","BSTAR":"0.00186450000000","FILE":"3791349"},{"SEMIMAJOR_AXIS":"6917.792","APOAPSIS":"539.982","MEAN_ANOMALY":"46.3686","TLE_LINE2":"2 52879  53.2172 357.9604 0000469 313.7268  46.3686 15.08868824 37122","REV_AT_EPOCH":"3712","EPOCH":"2023-02-14T14:08:20.851872","NORAD_CAT_ID":"52879","OBJECT_ID":"2022-062BB","MEAN_MOTION_DOT":"0.00020639","MEAN_MOTION":"15.08868824","GP_ID":"225394482","RCS_SIZE":"LARGE","LAUNCH_DATE":"2022-06-17","RA_OF_ASC_NODE":"357.9604","SITE":"AFETR","BSTAR":"0.00131000000000","FILE":"3791349","ECCENTRICITY":"0.00004690","ELEMENT_SET_NO":"999","ARG_OF_PERICENTER":"313.7268","REF_FRAME":"TEME","CENTER_NAME":"EARTH","OBJECT_NAME":"STARLINK-4139","TLE_LINE1":"1 52879U 22062BB  23045.58913023  .00020639  00000-0  13100-2 0  9995","CLASSIFICATION_TYPE":"U","OBJECT_TYPE":"PAYLOAD","MEAN_MOTION_DDOT":"0.0000000000000","PERIOD":"95.436","MEAN_ELEMENT_THEORY":"SGP4","DECAY_DATE":null,"TIME_SYSTEM":"UTC","COUNTRY_CODE":"US","PERIAPSIS":"539.333","INCLINATION":"53.2172","EPHEMERIS_TYPE":"0"},{"PERIAPSIS":"538.202","COUNTRY_CODE":"US","TIME_SYSTEM":"UTC","INCLINATION":"53.2159","EPHEMERIS_TYPE":"0","OBJECT_NAME":"STARLINK-4186","REF_FRAME":"TEME","CENTER_NAME":"EARTH","CLASSIFICATION_TYPE":"U","TLE_LINE1":"1 52880U 22062BC  23045.59282900  .00018402  00000-0  11712-2 0  9993","PERIOD":"95.437","OBJECT_TYPE":"PAYLOAD","MEAN_MOTION_DDOT":"0.0000000000000","DECAY_DATE":null,"MEAN_ELEMENT_THEORY":"SGP4","LAUNCH_DATE":"2022-06-17","RCS_SIZE":"LARGE","GP_ID":"225408579","MEAN_MOTION":"15.08842778","RA_OF_ASC_NODE":"357.9459","SITE":"AFETR","FILE":"3792004","BSTAR":"0.00117120000000","ARG_OF_PERICENTER":"90.6967","ELEMENT_SET_NO":"999","ECCENTRICITY":"0.00022190","MEAN_ANOMALY":"269.4279","APOAPSIS":"541.272","SEMIMAJOR_AXIS":"6917.872","TLE_LINE2":"2 52880  53.2159 357.9459 0002219  90.6967 269.4279 15.08842778 37619","REV_AT_EPOCH":"3761","EPOCH":"2023-02-14T14:13:40.425600","NORAD_CAT_ID":"52880","OBJECT_ID":"2022-062BC","MEAN_MOTION_DOT":"0.00018402"},{"OBJECT_TYPE":"PAYLOAD","MEAN_MOTION_DDOT":"0.0000000000000","PERIOD":"95.439","MEAN_ELEMENT_THEORY":"SGP4","DECAY_DATE":null,"CENTER_NAME":"EARTH","OBJECT_NAME":"STARLINK-4192","REF_FRAME":"TEME","TLE_LINE1":"1 52881U 22062BD  23045.86146263 -.00007337  00000-0 -44366-3 0  9994","CLASSIFICATION_TYPE":"U","INCLINATION":"53.2161","EPHEMERIS_TYPE":"0","TIME_SYSTEM":"UTC","COUNTRY_CODE":"US","PERIAPSIS":"538.889","NORAD_CAT_ID":"52881","EPOCH":"2023-02-14T20:40:30.371232","OBJECT_ID":"2022-062BD","MEAN_MOTION_DOT":"-0.00007337","SEMIMAJOR_AXIS":"6917.960","APOAPSIS":"540.760","MEAN_ANOMALY":"261.2160","REV_AT_EPOCH":"3716","TLE_LINE2":"2 52881  53.2161 356.7398 0001352  98.8985 261.2160 15.08814096 37160","BSTAR":"-0.00044366000000","FILE":"3792084","ECCENTRICITY":"0.00013520","ELEMENT_SET_NO":"999","ARG_OF_PERICENTER":"98.8985","MEAN_MOTION":"15.08814096","GP_ID":"225434342","RCS_SIZE":"LARGE","LAUNCH_DATE":"2022-06-17","SITE":"AFETR","RA_OF_ASC_NODE":"356.7398"},{"EPHEMERIS_TYPE":"0","INCLINATION":"53.2159","PERIAPSIS":"538.735","COUNTRY_CODE":"US","TIME_SYSTEM":"UTC","DECAY_DATE":null,"MEAN_ELEMENT_THEORY":"SGP4","PERIOD":"95.436","OBJECT_TYPE":"PAYLOAD","MEAN_MOTION_DDOT":"0.0000000000000","CLASSIFICATION_TYPE":"U","TLE_LINE1":"1 52882U 22062BE  23045.58546270  .00024490  00000-0  15507-2 0  9997","CENTER_NAME":"EARTH","OBJECT_NAME":"STARLINK-4181","REF_FRAME":"TEME","ARG_OF_PERICENTER":"52.5076","ELEMENT_SET_NO":"999","ECCENTRICITY":"0.00013790","FILE":"3791349","BSTAR":"0.00155070000000","RA_OF_ASC_NODE":"357.9797","SITE":"AFETR","LAUNCH_DATE":"2022-06-17","RCS_SIZE":"LARGE","GP_ID":"225393737","MEAN_MOTION":"15.08858347","OBJECT_ID":"2022-062BE","MEAN_MOTION_DOT":"0.00024490","EPOCH":"2023-02-14T14:03:03.977280","NORAD_CAT_ID":"52882","REV_AT_EPOCH":"3712","TLE_LINE2":"2 52882  53.2159 357.9797 0001379  52.5076 307.6041 15.08858347 37127","MEAN_ANOMALY":"307.6041","APOAPSIS":"540.643","SEMIMAJOR_AXIS":"6917.824"},{"FILE":"3792084","BSTAR":"0.00015924000000","ARG_OF_PERICENTER":"68.5221","ELEMENT_SET_NO":"999","ECCENTRICITY":"0.00006940","LAUNCH_DATE":"2022-07-07","GP_ID":"225434849","RCS_SIZE":"LARGE","MEAN_MOTION":"15.08842527","RA_OF_ASC_NODE":"77.0812","SITE":"AFETR","EPOCH":"2023-02-14T18:49:12.916992","NORAD_CAT_ID":"52986","OBJECT_ID":"2022-076A","MEAN_MOTION_DOT":"0.00002248","MEAN_ANOMALY":"291.5845","APOAPSIS":"540.218","SEMIMAJOR_AXIS":"6917.873","TLE_LINE2":"2 52986  53.2160  77.0812 0000694  68.5221 291.5845 15.08842527 33920","REV_AT_EPOCH":"3392","INCLINATION":"53.2160","EPHEMERIS_TYPE":"0","PERIAPSIS":"539.258","COUNTRY_CODE":"US","TIME_SYSTEM":"UTC","PERIOD":"95.437","MEAN_MOTION_DDOT":"0.0000000000000","OBJECT_TYPE":"PAYLOAD","DECAY_DATE":null,"MEAN_ELEMENT_THEORY":"SGP4","OBJECT_NAME":"STARLINK-4260","REF_FRAME":"TEME","CENTER_NAME":"EARTH","CLASSIFICATION_TYPE":"U","TLE_LINE1":"1 52986U 22076A   23045.78417728  .00002248  00000-0  15924-3 0  9995"},{"NORAD_CAT_ID":"52987","EPOCH":"2023-02-14T15:00:00.659232","MEAN_MOTION_DOT":"0.00028991","OBJECT_ID":"2022-076B","MEAN_ANOMALY":"262.0194","APOAPSIS":"540.165","SEMIMAJOR_AXIS":"6917.736","REV_AT_EPOCH":"3376","TLE_LINE2":"2 52987  53.2137  87.7966 0000816  98.0891 262.0194 15.08887284 33761","FILE":"3792084","BSTAR":"0.00182980000000","ARG_OF_PERICENTER":"98.0891","ELEMENT_SET_NO":"999","ECCENTRICITY":"0.00008160","LAUNCH_DATE":"2022-07-07","RCS_SIZE":"LARGE","GP_ID":"225433608","MEAN_MOTION":"15.08887284","SITE":"AFETR","RA_OF_ASC_NODE":"87.7966","PERIOD":"95.435","MEAN_MOTION_DDOT":"0.0000000000000","OBJECT_TYPE":"PAYLOAD","DECAY_DATE":null,"MEAN_ELEMENT_THEORY":"SGP4","REF_FRAME":"TEME","OBJECT_NAME":"STARLINK-4259","CENTER_NAME":"EARTH","CLASSIFICATION_TYPE":"U","TLE_LINE1":"1 52987U 22076B   23045.62500763  .00028991  00000-0  18298-2 0  9990","INCLINATION":"53.2137","EPHEMERIS_TYPE":"0","PERIAPSIS":"539.036","COUNTRY_CODE":"US","TIME_SYSTEM":"UTC"}];
